$$SOE
2461295.500000000, A.D. 2026-Sep-12 00:00:00.0000, 4.169457885876499E+08, 2.273067607006761E+08, -5.844375284789750E+07,
2461302.500000000, A.D. 2026-Sep-19 00:00:00.0000, 4.125891208036505E+08, 2.356055738387825E+08, -5.481514140756382E+07,
2461309.500000000, A.D. 2026-Sep-26 00:00:00.0000, 4.080493820962731E+08, 2.437998118647660E+08, -5.116220535457130E+07,
2461316.500000000, A.D. 2026-Oct-03 00:00:00.0000, 4.033283663792992E+08, 2.518857056914169E+08, -4.748653818046738E+07,
2461323.500000000, A.D. 2026-Oct-10 00:00:00.0000, 3.984279520899444E+08, 2.598595245597420E+08, -4.378974727839606E+07,
2461330.500000000, A.D. 2026-Oct-17 00:00:00.0000, 3.933501017344881E+08, 2.677175779224324E+08, -4.007345330738732E+07,
2461337.500000000, A.D. 2026-Oct-24 00:00:00.0000, 3.880968613848254E+08, 2.754562172304384E+08, -3.633928955205503E+07,
2461344.500000000, A.D. 2026-Oct-31 00:00:00.0000, 3.826703602232127E+08, 2.830718375536023E+08, -3.258890129185663E+07,
2461351.500000000, A.D. 2026-Nov-07 00:00:00.0000, 3.770728104721314E+08, 2.905608791073917E+08, -2.882394520470507E+07,
2461358.500000000, A.D. 2026-Nov-14 00:00:00.0000, 3.713065079075856E+08, 2.979198295713872E+08, -2.504608875078137E+07,
2461365.500000000, A.D. 2026-Nov-21 00:00:00.0000, 3.653738311405188E+08, 3.051452278806030E+08, -2.125700931464805E+07,
2461372.500000000, A.D. 2026-Nov-28 00:00:00.0000, 3.592772386669527E+08, 3.122336664841591E+08, -1.745839326014772E+07,
2461379.500000000, A.D. 2026-Dec-05 00:00:00.0000, 3.530192673096877E+08, 3.191817914171237E+08, -1.365193528424476E+07,
2461386.500000000, A.D. 2026-Dec-12 00:00:00.0000, 3.466025322185461E+08, 3.259863032949736E+08, -9.839337830899924E+06,
2461393.500000000, A.D. 2026-Dec-19 00:00:00.0000, 3.400297265419899E+08, 3.326439592351854E+08, -6.022310391212910E+06,
2461400.500000000, A.D. 2026-Dec-26 00:00:00.0000, 3.333036206277413E+08, 3.391515748363138E+08, -2.202568747562662E+06,
2461407.500000000, A.D. 2027-Jan-02 00:00:00.0000, 3.264270610278721E+08, 3.455060260218353E+08, 1.618165797434464E+06,
2461414.500000000, A.D. 2027-Jan-09 00:00:00.0000, 3.194029694242558E+08, 3.517042507670065E+08, 5.438167198070884E+06,
2461421.500000000, A.D. 2027-Jan-16 00:00:00.0000, 3.122343415080624E+08, 3.577432507156988E+08, 9.255705446178854E+06,
2461428.500000000, A.D. 2027-Jan-23 00:00:00.0000, 3.049242458572426E+08, 3.636200926458998E+08, 1.306904734759212E+07,
2461435.500000000, A.D. 2027-Jan-30 00:00:00.0000, 2.974758229976779E+08, 3.693319097347425E+08, 1.687645727302939E+07,
2461442.500000000, A.D. 2027-Feb-06 00:00:00.0000, 2.898922850712234E+08, 3.748759029619244E+08, 2.067619787185435E+07,
2461449.500000000, A.D. 2027-Feb-13 00:00:00.0000, 2.821769156491131E+08, 3.802493438689082E+08, 2.446653089002648E+07,
2461456.500000000, A.D. 2027-Feb-20 00:00:00.0000, 2.743330673238056E+08, 3.854495778796203E+08, 2.824571824371362E+07,
2461463.500000000, A.D. 2027-Feb-27 00:00:00.0000, 2.663641584728089E+08, 3.904740249689966E+08, 3.201202295749986E+07,
2461470.500000000, A.D. 2027-Mar-06 00:00:00.0000, 2.582736722138921E+08, 3.953201796022941E+08, 3.576370984701303E+07,
2461477.500000000, A.D. 2027-Mar-13 00:00:00.0000, 2.500651559518050E+08, 3.999856119920726E+08, 3.949904625944403E+07,
2461484.500000000, A.D. 2027-Mar-20 00:00:00.0000, 2.417422203862824E+08, 4.044679698359797E+08, 4.321630290662864E+07,
2461491.500000000, A.D. 2027-Mar-27 00:00:00.0000, 2.333085381831127E+08, 4.087649799849927E+08, 4.691375472669011E+07,
2461498.500000000, A.D. 2027-Apr-03 00:00:00.0000, 2.247678425113460E+08, 4.128744499930442E+08, 5.058968175113502E+07,
2461505.500000000, A.D. 2027-Apr-10 00:00:00.0000, 2.161239255081500E+08, 4.167942695696619E+08, 5.424236997308269E+07,
2461512.500000000, A.D. 2027-Apr-17 00:00:00.0000, 2.073806366936688E+08, 4.205224119198335E+08, 5.787011221285099E+07,
2461519.500000000, A.D. 2027-Apr-24 00:00:00.0000, 1.985418814153585E+08, 4.240569349075155E+08, 6.147120896799123E+07,
2461526.500000000, A.D. 2027-May-01 00:00:00.0000, 1.896116196217751E+08, 4.273959820694776E+08, 6.504396922207963E+07,
2461533.500000000, A.D. 2027-May-08 00:00:00.0000, 1.805938652741517E+08, 4.305377842271333E+08, 6.858671124485153E+07,
2461540.500000000, A.D. 2027-May-15 00:00:00.0000, 1.714926849003356E+08, 4.334806626477400E+08, 7.209776359821144E+07,
2461547.500000000, A.D. 2027-May-22 00:00:00.0000, 1.623121937265707E+08, 4.362230311598216E+08, 7.557546627870384E+07,
2461554.500000000, A.D. 2027-May-29 00:00:00.0000, 1.530565527421254E+08, 4.387633957546768E+08, 7.901817156853315E+07,
2461561.500000000, A.D. 2027-Jun-05 00:00:00.0000, 1.437299675838775E+08, 4.411003548065364E+08, 8.242424477002031E+07,
2461568.500000000, A.D. 2027-Jun-12 00:00:00.0000, 1.343366872350845E+08, 4.432326003411421E+08, 8.579206504236275E+07,
2461575.500000000, A.D. 2027-Jun-19 00:00:00.0000, 1.248810022081364E+08, 4.451589194157283E+08, 8.912002629414085E+07,
2461582.500000000, A.D. 2027-Jun-26 00:00:00.0000, 1.153672424919525E+08, 4.468781953474291E+08, 9.240653808415636E+07,
2461589.500000000, A.D. 2027-Jul-03 00:00:00.0000, 1.057997753976555E+08, 4.483894087962601E+08, 9.565002651849771E+07,
2461596.500000000, A.D. 2027-Jul-10 00:00:00.0000, 9.618300334052275E+07, 4.496916387086521E+08, 9.884893514013624E+07,
2461603.500000000, A.D. 2027-Jul-17 00:00:00.0000, 8.652136159495096E+07, 4.507840630798572E+08, 1.020017258033230E+08,
2461610.500000000, A.D. 2027-Jul-24 00:00:00.0000, 7.681931617852552E+07, 4.516659594704448E+08, 1.051068795122901E+08,
2461617.500000000, A.D. 2027-Jul-31 00:00:00.0000, 6.708136227630159E+07, 4.523367055120314E+08, 1.081628972054292E+08,
2461624.500000000, A.D. 2027-Aug-07 00:00:00.0000, 5.731202300560297E+07, 4.527957805550963E+08, 1.111683005978331E+08,
2461631.500000000, A.D. 2027-Aug-14 00:00:00.0000, 4.751584622313565E+07, 4.530427682053449E+08, 1.141216332724565E+08,
2461638.500000000, A.D. 2027-Aug-21 00:00:00.0000, 3.769739999412604E+07, 4.530773563816311E+08, 1.170214616871571E+08,
2461645.500000000, A.D. 2027-Aug-28 00:00:00.0000, 2.786127015501912E+07, 4.528993360987300E+08, 1.198663758811434E+08,
2461652.500000000, A.D. 2027-Sep-04 00:00:00.0000, 1.801205879153864E+07, 4.525086014778314E+08, 1.226549901934538E+08,
2461659.500000000, A.D. 2027-Sep-11 00:00:00.0000, 8.154382239370818E+06, 4.519051503213900E+08, 1.253859440660124E+08,
2461666.500000000, A.D. 2027-Sep-18 00:00:00.0000, -1.707131257932149E+06, 4.510890846001748E+08, 1.280579028644713E+08,
2461673.500000000, A.D. 2027-Sep-25 00:00:00.0000, -1.156784400363213E+07, 4.500606107737492E+08, 1.306695586882898E+08,
2461680.500000000, A.D. 2027-Oct-02 00:00:00.0000, -2.142311133849409E+07, 4.488200399712188E+08, 1.332196311643009E+08,
2461687.500000000, A.D. 2027-Oct-09 00:00:00.0000, -3.126828414333573E+07, 4.473677880271877E+08, 1.357068682202577E+08,
2461694.500000000, A.D. 2027-Oct-16 00:00:00.0000, -4.109871128848162E+07, 4.457043753175592E+08, 1.381300468270295E+08,
2461701.500000000, A.D. 2027-Oct-23 00:00:00.0000, -5.090974176847109E+07, 4.438304263890691E+08, 1.404879736841672E+08,
2461708.500000000, A.D. 2027-Oct-30 00:00:00.0000, -6.069672614570166E+07, 4.417466699928454E+08, 1.427794858636409E+08,
2461715.500000000, A.D. 2027-Nov-06 00:00:00.0000, -7.045501846436781E+07, 4.394539406509584E+08, 1.450034516103762E+08,
2461722.500000000, A.D. 2027-Nov-13 00:00:00.0000, -8.017998061666550E+07, 4.369531796792899E+08, 1.471587713109878E+08,
2461729.500000000, A.D. 2027-Nov-20 00:00:00.0000, -8.986698625755785E+07, 4.342454334781306E+08, 1.492443781840324E+08,
2461736.500000000, A.D. 2027-Nov-27 00:00:00.0000, -9.951142265037242E+07, 4.313318520554042E+08, 1.512592387856624E+08,
2461743.500000000, A.D. 2027-Dec-04 00:00:00.0000, -1.091086924642800E+08, 4.282136886981385E+08, 1.532023535912674E+08,
2461750.500000000, A.D. 2027-Dec-11 00:00:00.0000, -1.186542160711914E+08, 4.248922998279584E+08, 1.550727576240515E+08,
2461757.500000000, A.D. 2027-Dec-18 00:00:00.0000, -1.281434340647307E+08, 4.213691447009705E+08, 1.568695210767970E+08,
2461764.500000000, A.D. 2027-Dec-25 00:00:00.0000, -1.375718098470288E+08, 4.176457849497420E+08, 1.585917499120243E+08,
2461771.500000000, A.D. 2028-Jan-01 00:00:00.0000, -1.469348322395395E+08, 4.137238839819677E+08, 1.602385864372538E+08,
$$EOE